{
  "type": "FeatureCollection",
  "features": [
    {
      "type": "Feature",
      "properties": {
        "norad_id": 31033,
        "name": "FENGYUN 1C DEB",
        "group": "fengyun-1c-debris",
        "lat": 52.66203556947546,
        "lon": -39.42932187702228,
        "alt_km": 705.7209099652564,
        "timestamp": "2025-12-19T16:54:44.541795+00:00",
        "meta_object_name": "FENGYUN 1C DEB",
        "meta_object_id": "1999-025BEB",
        "meta_epoch": "2025-12-18T05:24:36.514368",
        "meta_mean_motion": 14.27458207,
        "meta_eccentricity": 0.01542275,
        "meta_inclination": 98.4387,
        "meta_ra_of_asc_node": 330.3636,
        "meta_arg_of_pericenter": 94.4458,
        "meta_mean_anomaly": 282.808,
        "meta_ephemeris_type": 0,
        "meta_classification_type": "U",
        "meta_norad_cat_id": 31033,
        "meta_element_set_no": 999,
        "meta_rev_at_epoch": 97424,
        "meta_bstar": 0.00016583788,
        "meta_mean_motion_dot": 4.19e-06,
        "meta_mean_motion_ddot": 0,
        "tle_line1": "1 31033U 99025BEB 25352.22542262  .00000419  00000+0  16584-3 0  9997",
        "tle_line2": "2 31033  98.4387 330.3636 0154227  94.4458 282.8080 14.27458207974244"
      },
      "geometry": {
        "type": "Point",
        "coordinates": [
          -39.42932187702228,
          52.66203556947546
        ]
      }
    },
    {
      "type": "Feature",
      "properties": {
        "norad_id": 31036,
        "name": "FENGYUN 1C DEB",
        "group": "fengyun-1c-debris",
        "lat": 45.468655355810924,
        "lon": 91.3780261788189,
        "alt_km": 817.8868302753099,
        "timestamp": "2025-12-19T16:54:44.541805+00:00",
        "meta_object_name": "FENGYUN 1C DEB",
        "meta_object_id": "1999-025BEE",
        "meta_epoch": "2025-12-18T06:02:23.919072",
        "meta_mean_motion": 14.49084458,
        "meta_eccentricity": 0.01375082,
        "meta_inclination": 98.9148,
        "meta_ra_of_asc_node": 99.0243,
        "meta_arg_of_pericenter": 247.8939,
        "meta_mean_anomaly": 142.2947,
        "meta_ephemeris_type": 0,
        "meta_classification_type": "U",
        "meta_norad_cat_id": 31036,
        "meta_element_set_no": 999,
        "meta_rev_at_epoch": 57387,
        "meta_bstar": 0.00021841941,
        "meta_mean_motion_dot": 8.77e-06,
        "meta_mean_motion_ddot": 0,
        "tle_line1": "1 31036U 99025BEE 25352.25166573  .00000877  00000+0  21842-3 0  9991",
        "tle_line2": "2 31036  98.9148  99.0243 0137508 247.8939 142.2947 14.49084458573873"
      },
      "geometry": {
        "type": "Point",
        "coordinates": [
          91.3780261788189,
          45.468655355810924
        ]
      }
    },
    {
      "type": "Feature",
      "properties": {
        "norad_id": 31038,
        "name": "FENGYUN 1C DEB",
        "group": "fengyun-1c-debris",
        "lat": 56.32016601037132,
        "lon": -88.0638206881008,
        "alt_km": 728.2710891833058,
        "timestamp": "2025-12-19T16:54:44.541816+00:00",
        "meta_object_name": "FENGYUN 1C DEB",
        "meta_object_id": "1999-025BEG",
        "meta_epoch": "2025-12-17T16:10:31.099584",
        "meta_mean_motion": 14.45844316,
        "meta_eccentricity": 0.0084304,
        "meta_inclination": 99.014,
        "meta_ra_of_asc_node": 75.9992,
        "meta_arg_of_pericenter": 213.7595,
        "meta_mean_anomaly": 145.821,
        "meta_ephemeris_type": 0,
        "meta_classification_type": "U",
        "meta_norad_cat_id": 31038,
        "meta_element_set_no": 999,
        "meta_rev_at_epoch": 98306,
        "meta_bstar": 0.00045261885,
        "meta_mean_motion_dot": 1.626e-05,
        "meta_mean_motion_ddot": 0,
        "tle_line1": "1 31038U 99025BEG 25351.67397106  .00001626  00000+0  45262-3 0  9991",
        "tle_line2": "2 31038  99.0140  75.9992 0084304 213.7595 145.8210 14.45844316983069"
      },
      "geometry": {
        "type": "Point",
        "coordinates": [
          -88.0638206881008,
          56.32016601037132
        ]
      }
    },
    {
      "type": "Feature",
      "properties": {
        "norad_id": 31040,
        "name": "FENGYUN 1C DEB",
        "group": "fengyun-1c-debris",
        "lat": 25.048357124469387,
        "lon": 167.45996208720052,
        "alt_km": 789.8219957602878,
        "timestamp": "2025-12-19T16:54:44.541826+00:00",
        "meta_object_name": "FENGYUN 1C DEB",
        "meta_object_id": "1999-025BEJ",
        "meta_epoch": "2025-12-18T10:26:06.254304",
        "meta_mean_motion": 14.17678932,
        "meta_eccentricity": 0.00625828,
        "meta_inclination": 98.6582,
        "meta_ra_of_asc_node": 342.1389,
        "meta_arg_of_pericenter": 177.6674,
        "meta_mean_anomaly": 339.7033,
        "meta_ephemeris_type": 0,
        "meta_classification_type": "U",
        "meta_norad_cat_id": 31040,
        "meta_element_set_no": 999,
        "meta_rev_at_epoch": 96787,
        "meta_bstar": 0.00024558532,
        "meta_mean_motion_dot": 4.67e-06,
        "meta_mean_motion_ddot": 0,
        "tle_line1": "1 31040U 99025BEJ 25352.43479461  .00000467  00000+0  24559-3 0  9992",
        "tle_line2": "2 31040  98.6582 342.1389 0062582 177.6674 339.7033 14.17678932967872"
      },
      "geometry": {
        "type": "Point",
        "coordinates": [
          167.45996208720052,
          25.048357124469387
        ]
      }
    },
    {
      "type": "Feature",
      "properties": {
        "norad_id": 31041,
        "name": "FENGYUN 1C DEB",
        "group": "fengyun-1c-debris",
        "lat": 38.12575548484033,
        "lon": 15.287729211637947,
        "alt_km": 838.1668466437568,
        "timestamp": "2025-12-19T16:54:44.541836+00:00",
        "meta_object_name": "FENGYUN 1C DEB",
        "meta_object_id": "1999-025BEK",
        "meta_epoch": "2025-12-17T07:08:56.502816",
        "meta_mean_motion": 14.17878855,
        "meta_eccentricity": 0.00870718,
        "meta_inclination": 99.2051,
        "meta_ra_of_asc_node": 20.1057,
        "meta_arg_of_pericenter": 307.2564,
        "meta_mean_anomaly": 52.0691,
        "meta_ephemeris_type": 0,
        "meta_classification_type": "U",
        "meta_norad_cat_id": 31041,
        "meta_element_set_no": 999,
        "meta_rev_at_epoch": 95554,
        "meta_bstar": 0.0018164278,
        "meta_mean_motion_dot": 3.806e-05,
        "meta_mean_motion_ddot": 0,
        "tle_line1": "1 31041U 99025BEK 25351.29787619  .00003806  00000+0  18164-2 0  9997",
        "tle_line2": "2 31041  99.2051  20.1057 0087071 307.2564  52.0691 14.17878855955547"
      },
      "geometry": {
        "type": "Point",
        "coordinates": [
          15.287729211637947,
          38.12575548484033
        ]
      }
    },
    {
      "type": "Feature",
      "properties": {
        "norad_id": 31043,
        "name": "FENGYUN 1C DEB",
        "group": "fengyun-1c-debris",
        "lat": 9.922210454048848,
        "lon": -167.13790110541572,
        "alt_km": 895.8562394511064,
        "timestamp": "2025-12-19T16:54:44.541846+00:00",
        "meta_object_name": "FENGYUN 1C DEB",
        "meta_object_id": "1999-025BEM",
        "meta_epoch": "2025-12-19T00:53:25.622304",
        "meta_mean_motion": 14.08439257,
        "meta_eccentricity": 0.00410827,
        "meta_inclination": 98.7639,
        "meta_ra_of_asc_node": 10.6673,
        "meta_arg_of_pericenter": 346.2551,
        "meta_mean_anomaly": 40.6333,
        "meta_ephemeris_type": 0,
        "meta_classification_type": "U",
        "meta_norad_cat_id": 31043,
        "meta_element_set_no": 999,
        "meta_rev_at_epoch": 96076,
        "meta_bstar": 0.00036775969,
        "meta_mean_motion_dot": 5.92e-06,
        "meta_mean_motion_ddot": 0,
        "tle_line1": "1 31043U 99025BEM 25353.03710211  .00000592  00000+0  36776-3 0  9996",
        "tle_line2": "2 31043  98.7639  10.6673 0041082 346.2551  40.6333 14.08439257960769"
      },
      "geometry": {
        "type": "Point",
        "coordinates": [
          -167.13790110541572,
          9.922210454048848
        ]
      }
    },
    {
      "type": "Feature",
      "properties": {
        "norad_id": 31046,
        "name": "FENGYUN 1C DEB",
        "group": "fengyun-1c-debris",
        "lat": -60.92756389645821,
        "lon": 130.5059223216681,
        "alt_km": 713.0885547494318,
        "timestamp": "2025-12-19T16:54:44.541857+00:00",
        "meta_object_name": "FENGYUN 1C DEB",
        "meta_object_id": "1999-025BEQ",
        "meta_epoch": "2025-12-19T01:04:13.035648",
        "meta_mean_motion": 14.64035291,
        "meta_eccentricity": 0.00456056,
        "meta_inclination": 98.968,
        "meta_ra_of_asc_node": 113.2863,
        "meta_arg_of_pericenter": 83.4338,
        "meta_mean_anomaly": 337.7034,
        "meta_ephemeris_type": 0,
        "meta_classification_type": "U",
        "meta_norad_cat_id": 31046,
        "meta_element_set_no": 999,
        "meta_rev_at_epoch": 96735,
        "meta_bstar": 0.0028476754,
        "meta_mean_motion_dot": 0.00015136,
        "meta_mean_motion_ddot": 0,
        "tle_line1": "1 31046U 99025BEQ 25353.04459532  .00015136  00000+0  28477-2 0  9994",
        "tle_line2": "2 31046  98.9680 113.2863 0045605  83.4338 337.7034 14.64035291967351"
      },
      "geometry": {
        "type": "Point",
        "coordinates": [
          130.5059223216681,
          -60.92756389645821
        ]
      }
    }
  ]
}